COSMOS 2433 (720)       
1 32275U 07052A   25183.31836069 -.00000073  00000+0  00000+0 0  9997
2 32275  65.7692 327.6877 0002718 201.4454 158.5410  2.13104236137607
COSMOS 2432 (719)       
1 32276U 07052B   25183.10684031 -.00000073  00000+0  00000+0 0  9995
2 32276  65.7848 327.8158 0007750 328.7413 174.0151  2.13103251137627
COSMOS 2434 (721)       
1 32393U 07065A   25182.72076260  .00000068  00000+0  00000+0 0  9998
2 32393  64.3167 203.7381 0000726 320.3212 192.5343  2.13101468136307
COSMOS 2436 (723)       
1 32395U 07065C   25183.45696677  .00000078  00000+0  00000+0 0  9992
2 32395  64.3254 203.7818 0016664 352.7808 138.6656  2.13100312136270
COSMOS 2456 (730)       
1 36111U 09070A   25184.36519097 -.00000053  00000+0  00000+0 0  9995
2 36111  64.8052  82.8903 0004092 331.1055 159.3222  2.13103809120994
COSMOS 2457 (733)       
1 36112U 09070B   25181.38987926 -.00000033  00000+0  00000+0 0  9993
2 36112  64.7890  82.8429 0003349 135.1897   3.3339  2.13101256120932
COSMOS 2460 (732)       
1 36402U 10007C   25184.24746192 -.00000075  00000+0  00000+0 0  9999
2 36402  65.6178 326.2542 0001687 121.8389  45.9624  2.13106358119299
COSMOS 2476 (744)       
1 37867U 11064A   25184.53205368 -.00000052  00000+0  00000+0 0  9991
2 37867  65.0705  84.6599 0022166 237.5257 290.6215  2.13101636106336
COSMOS 2477 (745)       
1 37868U 11064B   25183.36827178 -.00000045  00000+0  00000+0 0  9993
2 37868  65.0767  84.7753 0019329 238.8642 296.5446  2.13103144106301
COSMOS 2475 (743)       
1 37869U 11064C   25183.38263937 -.00000045  00000+0  00000+0 0  9993
2 37869  65.0835  84.7932 0024679 253.2965 249.8167  2.13101984106312
COSMOS 2485 (747)       
1 39155U 13019A   25182.37461250 -.00000037  00000+0  00000+0 0  9992
2 39155  65.2234  85.3952 0022602 233.3815 126.4483  2.13104678 94807
COSMOS 2492 (754)       
1 39620U 14012A   25183.73981355 -.00000075  00000+0  00000+0 0  9999
2 39620  65.4971 325.7927 0010592 322.4456  37.4783  2.13103320 87790
COSMOS 2500 (755)       
1 40001U 14032A   25183.44488692 -.00000074  00000+0  00000+0 0  9999
2 40001  65.4336 325.5777 0007419 188.0330 171.9533  2.13106025 86007
COSMOS 2501 (702K)      
1 40315U 14075A   25183.23320813  .00000076  00000+0  00000+0 0  9992
2 40315  63.6165 202.4871 0021859 211.9400 147.9736  2.13101520 82392
COSMOS 2514 (751)       
1 41330U 16008A   25184.62469973 -.00000077  00000+0  00000+0 0  9995
2 41330  65.2244 324.9505 0011157 200.3820 159.5719  2.13102694 73199
COSMOS 2522 (752)       
1 42939U 17055A   25182.11721489  .00000060  00000+0  00000+0 0  9990
2 42939  64.0780 203.8348 0010640 241.0025 118.9376  2.13101989 60495
COSMOS 2527 (756)       
1 43508U 18053A   25183.95449838 -.00000048  00000+0  00000+0 0  9997
2 43508  65.3827  85.5733 0007050 234.8996 125.0705  2.13102240 54832
COSMOS 2529 (757)       
1 43687U 18086A   25184.05237242  .00000086  00000+0  00000+0 0  9998
2 43687  64.2940 204.3841 0011937 257.8158 102.1016  2.13102161 51840
COSMOS 2534 (758)       
1 44299U 19030A   25184.35761575  .00000090  00000+0  00000+0 0  9997
2 44299  64.3671 204.3629 0013522 276.6841  91.7713  2.13102472 47494
COSMOS 2544 (759)       
1 44850U 19088A   25183.89889693 -.00000048  00000+0  00000+0 0  9997
2 44850  65.3700  85.4049 0012662 258.1304 101.7640  2.13102114 43274
COSMOS 2545 (760)       
1 45358U 20018A   25184.09522906 -.00000078  00000+0  00000+0 0  9993
2 45358  64.5616 324.6681 0008742 232.5667 127.3524  2.13102632 41220
COSMOS 2547 (705K)      
1 46805U 20075A   25184.28166679  .00000090  00000+0  00000+0 0  9999
2 46805  64.5977 204.1205 0009165 240.7784 119.1814  2.13100353 36473
COSMOS 2557 (706K)      
1 52984U 22075A   25183.97900815 -.00000077  00000+0  00000+0 0  9995
2 52984  64.4987 326.7676 0010773 275.2356  84.6398  2.13102289 23273
COSMOS 2559 (707K)      
1 54031U 22130A   25184.26704028 -.00000078  00000+0  00000+0 0  9994
2 54031  64.4712 326.8524 0012350 178.5472 181.4552  2.13101692 21255
COSMOS 2564 (761)       
1 54377U 22161A   25184.11182569  .00000087  00000+0  00000+0 0  9994
2 54377  64.7393 204.2995 0011924 225.1868 134.7676  2.13102174 20197
COSMOS 2569 (703K)      
1 57517U 23114A   25183.65708670 -.00000048  00000+0  00000+0 0  9995
2 57517  65.1021  84.4256 0010540 297.9385  61.9926  2.13103749 14811
COSMOS 2584 (704K)      
1 63130U 25042A   25181.19724521 -.00000029  00000+0  00000+0 0  9994
2 63130  64.8825  84.7866 0005987 222.1098 137.8832  2.13103936  2541
